,School Name,City,Full Address,Zipcode,Phone Number,Distrct,MO Raniking,National Ranking,School page link (US News))
0,Lafayette Sr. High,"Wildwood, MO","17050 Clayton Rd, Wildwood, Missouri 63011",63011,(636) 733-4100,Rockwood R-Vi,1,431,https://www.usnews.com//education/best-high-schools/missouri/districts/rockwood-r-vi/lafayette-sr-high-11883
1,Smithville High,"Smithville, MO","645 S Commercial Ave, Smithville, Missouri 64089",64089,(816) 532-0405,Smithville R-II,2,531,https://www.usnews.com//education/best-high-schools/missouri/districts/smithville-r-ii/smithville-high-11910
2,Rockwood Summit Sr. High,"Fenton, MO","1780 Hawkins Rd, Fenton, Missouri 63026",63026,(636) 891-6800,Rockwood R-Vi,3,621,https://www.usnews.com//education/best-high-schools/missouri/districts/rockwood-r-vi/rockwood-summit-sr-high-11881
3,Eureka Sr. High,"Eureka, MO","4525 Hwy 109, Eureka, Missouri 63025",63025,(636) 733-3100,Rockwood R-Vi,4,681,https://www.usnews.com//education/best-high-schools/missouri/districts/rockwood-r-vi/eureka-sr-high-11882
4,Metro Academic and Classical High School,"St Louis, MO","4015 Mcpherson Ave, St Louis, Missouri 63108",63108,(314) 534-3894,St. Louis Public Schools,5,799,https://www.usnews.com//education/best-high-schools/missouri/districts/st-louis-public-schools/metro-academic-and-classical-high-school-11941
5,West High,"Ballwin, MO","14653 Clayton Rd, Ballwin, Missouri 63011",63011,(314) 415-7500,Parkway C-2,6,823,https://www.usnews.com//education/best-high-schools/missouri/districts/parkway-c-2/west-high-11835
6,Lindbergh Sr. High,"St. Louis, MO","5000 S. Lindbergh, St. Louis, Missouri 63126",63126,(314) 729-2410,Lindbergh Schools,7,940,https://www.usnews.com//education/best-high-schools/missouri/districts/lindbergh-schools/lindbergh-sr-high-11739
7,Marquette Sr. High,"Chesterfield, MO","2351 Clarkson Rd, Chesterfield, Missouri 63017",63017,(636) 891-6000,Rockwood R-Vi,8,947,https://www.usnews.com//education/best-high-schools/missouri/districts/rockwood-r-vi/marquette-sr-high-11880
8,Affton High,"St Louis, MO","8309 Mackenzie Rd, St Louis, Missouri 63123",63123,(314) 638-6330,Affton 101,9,977,https://www.usnews.com//education/best-high-schools/missouri/districts/affton-101/affton-high-11490
9,Ft. Zumwalt West High,"O'fallon, MO","1251 Turtle Creek Dr, O'fallon, Missouri 63366",63366,(636) 379-0300,Ft. Zumwalt R-II,10,"1,196",https://www.usnews.com//education/best-high-schools/missouri/districts/ft-zumwalt-r-ii/ft-zumwalt-west-high-11558
10,Liberty High School,"Lake St. Louis, MO","2275 Sommers Road, Lake St. Louis, Missouri 63367",63367,(636) 561-0075,Wentzville R-Iv,11,"1,205",https://www.usnews.com//education/best-high-schools/missouri/districts/wentzville-r-iv/liberty-high-school-147498
11,St. Louis Med/Bio Science High,"St. Louis, MO","1547 S. Theresa Av, St. Louis, Missouri 63104",63104,(314) 696-2290,St. Louis Public Schools,12,"1,241",https://www.usnews.com//education/best-high-schools/missouri/districts/st-louis-public-schools/st-louis-med-bio-science-high-147497
12,Central High,"Chesterfield, MO","369 N Woods Mill Rd, Chesterfield, Missouri 63017",63017,(314) 415-7900,Parkway C-2,13,"1,384",https://www.usnews.com//education/best-high-schools/missouri/districts/parkway-c-2/central-high-11832
13,Knob Noster High,"Knob Noster, MO","504 S Washington, Knob Noster, Missouri 65336",65336,(660) 563-2283,Knob Noster R-Viii,14,"1,649",https://www.usnews.com//education/best-high-schools/missouri/districts/knob-noster-r-viii/knob-noster-high-11714
14,Clayton High,"Clayton, MO","#1 Mark Twain Circle, Clayton, Missouri 63105",63105,(314) 854-6600,Clayton,15,"1,826",https://www.usnews.com//education/best-high-schools/missouri/districts/clayton/clayton-high-11569
15,Maplewood-Richmond Hgts. High,"Maplewood, MO","7539 Manchester Rd, Maplewood, Missouri 63143",63143,(314) 644-4401,Maplewood-Richmond Heights,16,"1,837",https://www.usnews.com//education/best-high-schools/missouri/districts/maplewood-richmond-heights/maplewood-richmond-hgts-high-11752
16,Parkway South High School,"Manchester, MO","801 Hanna Rd, Manchester, Missouri 63021",63021,(314) 415-7700,Parkway C-2,17,"1,867",https://www.usnews.com//education/best-high-schools/missouri/districts/parkway-c-2/parkway-south-high-school-11834
17,St. Charles West High,"St Charles, MO","3601 Droste Rd, St Charles, Missouri 63301",63301,(636) 443-4200,St. Charles R-Vi,18,"1,906",https://www.usnews.com//education/best-high-schools/missouri/districts/st-charles-r-vi/st-charles-west-high-11928
18,Lincoln College Prep.,"Kansas City, MO","2111 Woodland, Kansas City, Missouri 64108",64108,(816) 418-3000,Kansas City 33,19,"1,923",https://www.usnews.com//education/best-high-schools/missouri/districts/kansas-city-33/lincoln-college-prep-11696
19,Webster Groves High,"St Louis, MO","100 Selma Ave, St Louis, Missouri 63119",63119,(314) 963-6400,Webster Groves,20,"1,927",https://www.usnews.com//education/best-high-schools/missouri/districts/webster-groves/webster-groves-high-11996
20,Ft. Zumwalt East High,"St Peters, MO","600 1st Executive Ave, St Peters, Missouri 63376",63376,(636) 477-2400,Ft. Zumwalt R-II,21,"1,987",https://www.usnews.com//education/best-high-schools/missouri/districts/ft-zumwalt-r-ii/ft-zumwalt-east-high-11560
21,Truman High,"Independence, MO","3301 S Noland Rd, Independence, Missouri 64055",64055,(816) 521-5350,Independence 30,22,"2,018",https://www.usnews.com//education/best-high-schools/missouri/districts/independence-30/truman-high-11677
22,Ft. Zumwalt South High,"St Peters, MO","8050 Mexico Rd, St Peters, Missouri 63376",63376,(636) 978-1212,Ft. Zumwalt R-II,23,"2,115",https://www.usnews.com//education/best-high-schools/missouri/districts/ft-zumwalt-r-ii/ft-zumwalt-south-high-11557
23,Blue Springs High,"Blue Springs, MO","2000 Nw Ashton Dr, Blue Springs, Missouri 64015",64015,(816) 874-3400,Blue Springs R-Iv,24,"2,155",https://www.usnews.com//education/best-high-schools/missouri/districts/blue-springs-r-iv/blue-springs-high-11514
24,Ft. Zumwalt North High,"O'fallon, MO","1230 Tom Ginnever Blvd, O'fallon, Missouri 63366",63366,(636) 272-4447,Ft. Zumwalt R-II,25,"2,157",https://www.usnews.com//education/best-high-schools/missouri/districts/ft-zumwalt-r-ii/ft-zumwalt-north-high-11556
25,Fort Osage High,"Independence, MO","2101 N Twyman Rd, Independence, Missouri 64058",64058,(816) 650-7063,Fort Osage R-I,26,"2,216",https://www.usnews.com//education/best-high-schools/missouri/districts/fort-osage-r-i/fort-osage-high-11622
26,Francis Howell High,"St Charles, MO","7001 Hwy 94 South, St Charles, Missouri 63304",63304,(636) 851-4700,Francis Howell R-III,27,"2,248",https://www.usnews.com//education/best-high-schools/missouri/districts/francis-howell-r-iii/francis-howell-high-11929
27,Blue Springs South High,"Blue Springs, MO","1200 Se Adams Dairy Pkwy, Blue Springs, Missouri 64014",64014,(816) 874-3500,Blue Springs R-Iv,28,"2,275",https://www.usnews.com//education/best-high-schools/missouri/districts/blue-springs-r-iv/blue-springs-south-high-11515
28,Excelsior Springs High,"Excelsior Springs, MO","612 Tiger Dr, Excelsior Springs, Missouri 64024",64024,(816) 630-9210,Excelsior Springs 40,29,"2,438",https://www.usnews.com//education/best-high-schools/missouri/districts/excelsior-springs-40/excelsior-springs-high-11608
29,Smith-Cotton High School,"Sedalia, MO","2010 Tiger Pride Boulevard, Sedalia, Missouri 65301",65301,(660) 851-5300,Sedalia 200,30,"2,481",https://www.usnews.com//education/best-high-schools/missouri/districts/sedalia-200/smith-cotton-high-school-11898
30,Central High,"Springfield, MO","423 E Central, Springfield, Missouri 65802",65802,(417) 523-9600,Springfield R-Xii,31,"2,495",https://www.usnews.com//education/best-high-schools/missouri/districts/springfield-r-xii/central-high-11922
31,Rock Bridge Sr. High,"Columbia, MO","4303 S Providence Rd, Columbia, Missouri 65203",65203,(573) 214-3100,Columbia 93,32,"2,532",https://www.usnews.com//education/best-high-schools/missouri/districts/columbia-93/rock-bridge-sr-high-11482
32,Oakville Sr. High,"St Louis, MO","5557 Milburn Rd, St Louis, Missouri 63129",63129,(314) 467-7000,Mehlville R-Ix,33,"2,621",https://www.usnews.com//education/best-high-schools/missouri/districts/mehlville-r-ix/oakville-sr-high-11765
33,Caruthersville High,"Caruthersville, MO","1708 Ward Ave, Caruthersville, Missouri 63830",63830,(573) 333-6110,Caruthersville 18,34,"2,680",https://www.usnews.com//education/best-high-schools/missouri/districts/caruthersville-18/caruthersville-high-11551
34,Kirkwood Sr. High,"Kirkwood, MO","801 W Essex Ave, Kirkwood, Missouri 63122",63122,(314) 213-6110,Kirkwood R-Vii,35,"2,736",https://www.usnews.com//education/best-high-schools/missouri/districts/kirkwood-r-vii/kirkwood-sr-high-11713
35,Pattonville Sr. High,"Maryland Heights, MO","2497 Creve Coeur Mill Rd, Maryland Heights, Missouri 63043",63043,(314) 213-8051,Pattonville R-III,36,"2,783",https://www.usnews.com//education/best-high-schools/missouri/districts/pattonville-r-iii/pattonville-sr-high-11838
36,Timberland High,"Wentzville, MO","559 E Hwy N, Wentzville, Missouri 63385",63385,(636) 327-3988,Wentzville R-Iv,37,"3,140",https://www.usnews.com//education/best-high-schools/missouri/districts/wentzville-r-iv/timberland-high-12001
37,Grain Valley High,"Grain Valley, MO","551 Sw Eagles Pkwy, Grain Valley, Missouri 64029",64029,(816) 847-5000,Grain Valley R-V,38,"3,173",https://www.usnews.com//education/best-high-schools/missouri/districts/grain-valley-r-v/grain-valley-high-11636
38,Park Hill High,"Kansas City, MO","7701 Nw Barry Rd, Kansas City, Missouri 64153",64153,(816) 359-4110,Park Hill,39,"3,177",https://www.usnews.com//education/best-high-schools/missouri/districts/park-hill/park-hill-high-11829
39,Lee's Summit North High,"Lee's Summit, MO","901 Ne Douglas St, Lee's Summit, Missouri 64086",64086,(816) 986-3000,Lee's Summit R-Vii,40,"3,207",https://www.usnews.com//education/best-high-schools/missouri/districts/lees-summit-r-vii/lee-s-summit-north-high-11726
40,Lee's Summit Sr. High,"Lee's Summit, MO","400 Se Blue Pkwy, Lee's Summit, Missouri 64063",64063,(816) 986-2000,Lee's Summit R-Vii,41,"3,315",https://www.usnews.com//education/best-high-schools/missouri/districts/lees-summit-r-vii/lee-s-summit-sr-high-11725
41,Liberty High,"Liberty, MO","200 Bluejay Dr, Liberty, Missouri 64068",64068,(816) 736-5340,Liberty 53,42,"3,332",https://www.usnews.com//education/best-high-schools/missouri/districts/liberty-53/liberty-high-11735
42,Kirksville Sr. High,"Kirksville, MO","1300 S Cottage Grove, Kirksville, Missouri 63501",63501,(660) 665-4631,Kirksville R-III,43,"3,359",https://www.usnews.com//education/best-high-schools/missouri/districts/kirksville-r-iii/kirksville-sr-high-11712
43,Liberty North High School,"Liberty, MO","1000 N.e. 104th Street, Liberty, Missouri 64068",64068,(816) 736-5500,Liberty 53,44,"3,465",https://www.usnews.com//education/best-high-schools/missouri/districts/liberty-53/liberty-north-high-school-92070
44,North High,"St Louis, MO","12860 Fee Fee Rd, St Louis, Missouri 63146",63146,(314) 415-7600,Parkway C-2,45,"3,471",https://www.usnews.com//education/best-high-schools/missouri/districts/parkway-c-2/north-high-11833
45,North Kansas City High,"Kansas City, MO","620 E 23rd Ave, Kansas City, Missouri 64116",64116,(816) 321-5310,North Kansas City 74,46,"3,572",https://www.usnews.com//education/best-high-schools/missouri/districts/north-kansas-city-74/north-kansas-city-high-11803
46,Central High,"St Joseph, MO","2602 Edmond, St Joseph, Missouri 64501",64501,(816) 671-4080,St. Joseph,47,"3,645",https://www.usnews.com//education/best-high-schools/missouri/districts/st-joseph/central-high-11888
47,Kearney High,"Kearney, MO","715 E 19th St, Kearney, Missouri 64060",64060,(816) 628-4585,Kearney R-I,48,"3,802",https://www.usnews.com//education/best-high-schools/missouri/districts/kearney-r-i/kearney-high-11706
48,Emil E. Holt Sr. High,"Wentzville, MO","600 Campus Dr, Wentzville, Missouri 63385",63385,(636) 327-3876,Wentzville R-Iv,49,"3,848",https://www.usnews.com//education/best-high-schools/missouri/districts/wentzville-r-iv/emil-e-holt-sr-high-12000
49,Platte County High,"Platte City, MO","1501 Branch St, Platte City, Missouri 64079",64079,(816) 858-2822,Platte Co. R-III,50,"3,879",https://www.usnews.com//education/best-high-schools/missouri/districts/platte-co-r-iii/platte-county-high-11847
50,Ozark High,"Ozark, MO","1350 W Bluff Dr, Ozark, Missouri 65721",65721,(417) 582-5901,Ozark R-Vi,51,"3,951",https://www.usnews.com//education/best-high-schools/missouri/districts/ozark-r-vi/ozark-high-11825
51,Northwest High,"Cedar Hill, MO","6005 Cedar Hill Rd, Cedar Hill, Missouri 63016",63016,(636) 274-0555,Northwest R-I,52,"3,954",https://www.usnews.com//education/best-high-schools/missouri/districts/northwest-r-i/northwest-high-11809
52,Oak Park High,"Kansas City, MO","825 Ne 79th Terr, Kansas City, Missouri 64118",64118,(816) 321-5320,North Kansas City 74,53,"4,177",https://www.usnews.com//education/best-high-schools/missouri/districts/north-kansas-city-74/oak-park-high-11804
53,Francis Howell North High,"St Charles, MO","2549 Hackmann Rd, St Charles, Missouri 63303",63303,(636) 851-4900,Francis Howell R-III,54,"4,251",https://www.usnews.com//education/best-high-schools/missouri/districts/francis-howell-r-iii/francis-howell-north-high-11931
54,David H. Hickman High,"Columbia, MO","1104 N Providence Rd, Columbia, Missouri 65203",65203,(573) 214-3000,Columbia 93,55,"4,360",https://www.usnews.com//education/best-high-schools/missouri/districts/columbia-93/david-h-hickman-high-11483
55,Central High,"Cape Girardeau, MO","1000 S Silver Springs Rd, Cape Girardeau, Missouri 63703",63703,(573) 335-8228,Cape Girardeau 63,56,"4,410",https://www.usnews.com//education/best-high-schools/missouri/districts/cape-girardeau-63/central-high-11547
56,Gateway Science Academy High,"St. Louis, MO","5049 Fyler Avenue, St. Louis, Missouri 63139",63139,(314) 261-4361,Gateway Science Acad/St Louis,57,"4,591",https://www.usnews.com//education/best-high-schools/missouri/districts/gateway-science-acadst-louis/gateway-science-academy-high-154670
57,Waynesville Sr. High,"Waynesville, MO","200 G W Ln, Waynesville, Missouri 65583",65583,(573) 842-2400,Waynesville R-Vi,58,"4,709",https://www.usnews.com//education/best-high-schools/missouri/districts/waynesville-r-vi/waynesville-sr-high-11993
58,West Platte High,"Weston, MO","935 Washington St, Weston, Missouri 64098",64098,(816) 640-2292,West Platte Co. R-II,59,"4,735",https://www.usnews.com//education/best-high-schools/missouri/districts/west-platte-co-r-ii/west-platte-high-12003
59,Park Hill South High,"Riverside, MO","4500 Nw River Park Dr, Riverside, Missouri 64150",64150,(816) 359-4120,Park Hill,60,"4,857",https://www.usnews.com//education/best-high-schools/missouri/districts/park-hill/park-hill-south-high-11830
60,Fordland High,"Fordland, MO","1248 School St, Fordland, Missouri 65652",65652,(417) 767-4555,Fordland R-III,61,"4,875",https://www.usnews.com//education/best-high-schools/missouri/districts/fordland-r-iii/fordland-high-11620
61,Scotland Co. High,"Memphis, MO","606 West Lovers Lane, Memphis, Missouri 63555",63555,(660) 465-8901,Scotland Co. R-I,62,"4,922",https://www.usnews.com//education/best-high-schools/missouri/districts/scotland-co-r-i/scotland-co-high-11766
62,Winnetonka High,"Kansas City, MO","5815 Ne 48th St, Kansas City, Missouri 64119",64119,(816) 321-5340,North Kansas City 74,63,"5,025",https://www.usnews.com//education/best-high-schools/missouri/districts/north-kansas-city-74/winnetonka-high-11805
63,William Chrisman High,"Independence, MO","1223 N Noland Rd, Independence, Missouri 64050",64050,(816) 521-5355,Independence 30,64,"5,084",https://www.usnews.com//education/best-high-schools/missouri/districts/independence-30/william-chrisman-high-11678
64,Van Horn High,"Independnce, MO","1109 S Arlington Ave, Independnce, Missouri 64053",64053,(816) 521-5360,Independence 30,65,"5,234",https://www.usnews.com//education/best-high-schools/missouri/districts/independence-30/van-horn-high-11681
65,Frontier STEM High School,"Kansas City, MO","6455 E Commerce Ave., Kansas City, Missouri 64120",64120,(816) 241-6202,Frontier School Of Innovation,66,"5,250",https://www.usnews.com//education/best-high-schools/missouri/districts/frontier-school-of-innovation/frontier-stem-high-school-147495
66,Aurora High,"Aurora, MO","305 W Prospect St, Aurora, Missouri 65605",65605,(417) 678-3355,Aurora R-Viii,67,"5,286",https://www.usnews.com//education/best-high-schools/missouri/districts/aurora-r-viii/aurora-high-11499
67,Center Sr. High,"Kansas City, MO","8715 Holmes, Kansas City, Missouri 64131",64131,(816) 349-3330,Center 58,68,"5,368",https://www.usnews.com//education/best-high-schools/missouri/districts/center-58/center-sr-high-11553
68,St. Charles High,"St Charles, MO","725 N Kingshighway St, St Charles, Missouri 63301",63301,(636) 443-4100,St. Charles R-Vi,69,"5,427",https://www.usnews.com//education/best-high-schools/missouri/districts/st-charles-r-vi/st-charles-high-11927
69,Boonville High,"Boonville, MO","1 Pirate Drive, Boonville, Missouri 65233",65233,(660) 882-7426,Boonville R-I,70,"5,471",https://www.usnews.com//education/best-high-schools/missouri/districts/boonville-r-i/boonville-high-11519
70,Cuba High,"Cuba, MO","1 Wildcat Pride Dr, Cuba, Missouri 65453",65453,(573) 885-2534,Crawford Co. R-II,71,"5,476",https://www.usnews.com//education/best-high-schools/missouri/districts/crawford-co-r-ii/cuba-high-11586
71,Maryville High,"Maryville, MO","1503 S Munn Ave, Maryville, Missouri 64468",64468,(660) 562-3511,Maryville R-II,72,"5,512",https://www.usnews.com//education/best-high-schools/missouri/districts/maryville-r-ii/maryville-high-11760
72,Belton High,"Belton, MO","801 W. North Avenue, Belton, Missouri 64012",64012,(816) 489-7500,Belton 124,73,"5,581",https://www.usnews.com//education/best-high-schools/missouri/districts/belton-124/belton-high-11505
73,Neosho High,"Neosho, MO","511 Neosho Blvd, Neosho, Missouri 64850",64850,(417) 451-8670,Neosho R-V,74,"5,674",https://www.usnews.com//education/best-high-schools/missouri/districts/neosho-r-v/neosho-high-11786
74,Jackson Sr. High,"Jackson, MO","315 S Missouri, Jackson, Missouri 63755",63755,(573) 243-9513,Jackson R-II,75,"5,797",https://www.usnews.com//education/best-high-schools/missouri/districts/jackson-r-ii/jackson-sr-high-11684
75,Washington High,"Washington, MO","600 Blue Jay Dr, Washington, Missouri 63090",63090,(636) 231-2200,Washington,76,"6,114",https://www.usnews.com//education/best-high-schools/missouri/districts/washington/washington-high-11991
76,Raymore-Peculiar Sr. High,"Peculiar, MO","20801 School Rd, Peculiar, Missouri 64078",64078,(816) 892-1400,Raymore-Peculiar R-II,77,"6,200",https://www.usnews.com//education/best-high-schools/missouri/districts/raymore-peculiar-r-ii/raymore-peculiar-sr-high-11839
77,Palmyra High,"Palmyra, MO","1703 S Main St, Palmyra, Missouri 63461",63461,(573) 769-2067,Palmyra R-I,78,"6,211",https://www.usnews.com//education/best-high-schools/missouri/districts/palmyra-r-i/palmyra-high-11827
78,Osage High,"Osage Beach, MO","636 Hwy 42, Osage Beach, Missouri 65065",65065,(573) 348-0115,School Of The Osage,79,"6,213",https://www.usnews.com//education/best-high-schools/missouri/districts/school-of-the-osage/osage-high-11896
79,Mehlville High School,"St Louis, MO","3200 Lemay Ferry Rd, St Louis, Missouri 63125",63125,(314) 467-6000,Mehlville R-Ix,80,"6,257",https://www.usnews.com//education/best-high-schools/missouri/districts/mehlville-r-ix/mehlville-high-school-11764
80,Poplar Bluff High,"Poplar Bluff, MO","3209 Oak Grove Road, Poplar Bluff, Missouri 63901",63901,(573) 785-6471,Poplar Bluff R-I,81,"6,292",https://www.usnews.com//education/best-high-schools/missouri/districts/poplar-bluff-r-i/poplar-bluff-high-11853
81,Branson High,"Branson, MO","935 Buchanan Rd, Branson, Missouri 65616",65616,(417) 334-6511,Branson R-Iv,82,"6,378",https://www.usnews.com//education/best-high-schools/missouri/districts/branson-r-iv/branson-high-11525
82,Bolivar High,"Bolivar, MO","1401 N Hwy D, Bolivar, Missouri 65613",65613,(417) 326-5228,Bolivar R-I,83,"6,430",https://www.usnews.com//education/best-high-schools/missouri/districts/bolivar-r-i/bolivar-high-11517
83,Hancock Sr. High,"St Louis, MO","229 W Ripa Ave, St Louis, Missouri 63125",63125,(314) 544-1200,Hancock Place,84,"6,533",https://www.usnews.com//education/best-high-schools/missouri/districts/hancock-place/hancock-sr-high-11647
84,Fox Sr. High,"Arnold, MO","751 Jeffco Blvd, Arnold, Missouri 63010",63010,(636) 296-5210,Fox C-6,85,"6,591",https://www.usnews.com//education/best-high-schools/missouri/districts/fox-c-6/fox-sr-high-11624
85,University Academy-Upper,"Kansas City, MO","6801 Holmes Rd, Kansas City, Missouri 64131",64131,(816) 412-5902,University Academy,86,"6,795",https://www.usnews.com//education/best-high-schools/missouri/districts/university-academy/university-academy-upper-11472
86,Thayer Sr. High,"Thayer, MO","401 E Walnut St, Thayer, Missouri 65791",65791,(417) 264-4600,Thayer R-II,87,"7,092",https://www.usnews.com//education/best-high-schools/missouri/districts/thayer-r-ii/thayer-sr-high-11966
87,Lafayette High,"St Joseph, MO","412 Highland Ave, St Joseph, Missouri 64505",64505,(816) 671-4220,St. Joseph,88,"7,206",https://www.usnews.com//education/best-high-schools/missouri/districts/st-joseph/lafayette-high-11889
88,Savannah High,"Savannah, MO","701 State Rte E, Savannah, Missouri 64485",64485,(816) 324-3128,Savannah R-III,89,"7,398",https://www.usnews.com//education/best-high-schools/missouri/districts/savannah-r-iii/savannah-high-11894
89,Warrenton High,"Warrenton, MO","803 Pinckney, Warrenton, Missouri 63383",63383,(636) 456-6902,Warren Co. R-III,90,"7,414",https://www.usnews.com//education/best-high-schools/missouri/districts/warren-co-r-iii/warrenton-high-11989
90,Sherwood High,"Creighton, MO","33300 S Sherwood Dr, Creighton, Missouri 64739",64739,(660) 499-2239,Sherwood Cass R-Viii,91,"7,470",https://www.usnews.com//education/best-high-schools/missouri/districts/sherwood-cass-r-viii/sherwood-high-11583
91,Republic High,"Republic, MO","4370 S. Repmo Drive, Republic, Missouri 65738",65738,(417) 732-3650,Republic R-III,92,"7,485",https://www.usnews.com//education/best-high-schools/missouri/districts/republic-r-iii/republic-high-11864
92,Monett High,"Monett, MO","One David Sippy Dr, Monett, Missouri 65708",65708,(417) 235-5445,Monett R-I,93,"7,538",https://www.usnews.com//education/best-high-schools/missouri/districts/monett-r-i/monett-high-11773
93,South Pemiscot High,"Steele, MO","611 Beasley Rd, Steele, Missouri 63877",63877,(573) 695-3342,South Pemiscot Co. R-V,94,"7,630",https://www.usnews.com//education/best-high-schools/missouri/districts/south-pemiscot-co-r-v/south-pemiscot-high-11914
94,Bayless Sr. High,"St Louis, MO","4532 Weber Rd, St Louis, Missouri 63123",63123,(314) 256-8660,Bayless,95,"7,642",https://www.usnews.com//education/best-high-schools/missouri/districts/bayless/bayless-sr-high-11503
95,Milan High,"Milan, MO","373 S Market St, Milan, Missouri 63556",63556,(660) 265-1412,Milan C-2,96,"7,655",https://www.usnews.com//education/best-high-schools/missouri/districts/milan-c-2/milan-high-11770
96,Seckman Sr. High,"Imperial, MO","2800 Seckman Rd, Imperial, Missouri 63052",63052,(636) 282-1485,Fox C-6,97,"7,718",https://www.usnews.com//education/best-high-schools/missouri/districts/fox-c-6/seckman-sr-high-11625
97,McKinley Classical Leadership Academy,"St Louis, MO","2156 Russell Blvd, St Louis, Missouri 63104",63104,(314) 773-0027,St. Louis Public Schools,98,"7,820",https://www.usnews.com//education/best-high-schools/missouri/districts/st-louis-public-schools/mckinley-classical-leadership-academy-11950
98,East Prairie High,"East Prairie, MO","304 E Walnut, East Prairie, Missouri 63845",63845,(573) 649-3564,East Prairie R-II,99,"7,844",https://www.usnews.com//education/best-high-schools/missouri/districts/east-prairie-r-ii/east-prairie-high-11599
99,Oak Grove High,"Oak Grove, MO","605 Se 12th, Oak Grove, Missouri 64075",64075,(816) 690-4152,Oak Grove R-Vi,100,"7,900",https://www.usnews.com//education/best-high-schools/missouri/districts/oak-grove-r-vi/oak-grove-high-11813
100,South Iron High,"Annapolis, MO","210 School St, Annapolis, Missouri 63620",63620,(573) 598-4241,South Iron Co. R-I,101,"7,907",https://www.usnews.com//education/best-high-schools/missouri/districts/south-iron-co-r-i/south-iron-high-11912
101,Carthage High School,"Carthage, MO","2600 South River, Carthage, Missouri 64836",64836,(417) 359-7020,Carthage R-Ix,102,"7,911",https://www.usnews.com//education/best-high-schools/missouri/districts/carthage-r-ix/carthage-high-school-11550
102,Glendale High,"Springfield, MO","2727 S Ingram Mill, Springfield, Missouri 65804",65804,(417) 523-8900,Springfield R-Xii,103,"7,924",https://www.usnews.com//education/best-high-schools/missouri/districts/springfield-r-xii/glendale-high-11923
103,Webb City High,"Webb City, MO","621 N Madison, Webb City, Missouri 64870",64870,(417) 673-6010,Webb City R-Vii,104,"8,019",https://www.usnews.com//education/best-high-schools/missouri/districts/webb-city-r-vii/webb-city-high-11995
104,Herculaneum High,"Herculaneum, MO","1 Blackcat Dr, Herculaneum, Missouri 63048",63048,(636) 479-5200,Dunklin R-V,105,"8,051",https://www.usnews.com//education/best-high-schools/missouri/districts/dunklin-r-v/herculaneum-high-11657
105,Camdenton High,"Camdenton, MO","119 Service Rd, Camdenton, Missouri 65020",65020,(573) 346-9232,Camdenton R-III,106,"8,159",https://www.usnews.com//education/best-high-schools/missouri/districts/camdenton-r-iii/camdenton-high-11543
106,Lexington High,"Lexington, MO","2309 Aull Ln, Lexington, Missouri 64067",64067,(660) 259-4391,Lexington R-V,107,"8,221",https://www.usnews.com//education/best-high-schools/missouri/districts/lexington-r-v/lexington-high-11732
107,Hallsville High,"Hallsville, MO","421 Hwy 124 E, Hallsville, Missouri 65255",65255,(573) 696-5512,Hallsville R-Iv,108,"8,279",https://www.usnews.com//education/best-high-schools/missouri/districts/hallsville-r-iv/hallsville-high-11645
108,Lawson High,"Lawson, MO","600 Bob Gill Dr, Lawson, Missouri 64062",64062,(816) 580-7270,Lawson R-Xiv,109,"8,285",https://www.usnews.com//education/best-high-schools/missouri/districts/lawson-r-xiv/lawson-high-11722
109,Rolla Sr. High,"Rolla, MO","900 Bulldog Run, Rolla, Missouri 65401",65401,(573) 458-0140,Rolla 31,110,"8,714",https://www.usnews.com//education/best-high-schools/missouri/districts/rolla-31/rolla-sr-high-11885
110,Ruskin High School,"Kansas City, MO","7000 E 111th Street, Kansas City, Missouri 64134",64134,(816) 316-7400,Hickman Mills C-1,111,"8,724",https://www.usnews.com//education/best-high-schools/missouri/districts/hickman-mills-c-1/ruskin-high-school-11662
111,Raytown Sr. High,"Raytown, MO","6019 Blue Ridge Blvd, Raytown, Missouri 64133",64133,(816) 268-7300,Raytown C-2,112,"8,996",https://www.usnews.com//education/best-high-schools/missouri/districts/raytown-c-2/raytown-sr-high-11861
112,Lebanon Sr. High,"Lebanon, MO","777 Brice St, Lebanon, Missouri 65536",65536,(417) 532-9144,Lebanon R-III,113,"9,047",https://www.usnews.com//education/best-high-schools/missouri/districts/lebanon-r-iii/lebanon-sr-high-11724
113,Winona High,"Winona, MO","Hwy 19, Winona, Missouri 65588",65588,(573) 325-8101,Winona R-III,114,"9,063",https://www.usnews.com//education/best-high-schools/missouri/districts/winona-r-iii/winona-high-12014
114,Clopton High,"Clarksville, MO","28176 Hwy Ww, Clarksville, Missouri 63336",63336,(573) 242-3546,Pike Co. R-III,115,"9,215",https://www.usnews.com//education/best-high-schools/missouri/districts/pike-co-r-iii/clopton-high-11844
115,Cameron High,"Cameron, MO","1022 S Chestnut, Cameron, Missouri 64429",64429,(816) 882-1036,Cameron R-I,116,"9,334",https://www.usnews.com//education/best-high-schools/missouri/districts/cameron-r-i/cameron-high-11544
116,Macks Creek High,"Macks Creek, MO","245 State Rd N, Macks Creek, Missouri 65786",65786,(573) 363-5911,Macks Creek R-V,117,"9,425",https://www.usnews.com//education/best-high-schools/missouri/districts/macks-creek-r-v/macks-creek-high-11746
117,Sullivan Sr. High,"Sullivan, MO","1073 E Vine St, Sullivan, Missouri 63080",63080,(573) 468-5171,Sullivan,118,"9,468",https://www.usnews.com//education/best-high-schools/missouri/districts/sullivan/sullivan-sr-high-11962
118,Valley Park Sr. High,"Valley Park, MO","1 Main St, Valley Park, Missouri 63088",63088,(636) 923-3613,Valley Park,119,"9,483",https://www.usnews.com//education/best-high-schools/missouri/districts/valley-park/valley-park-sr-high-11979
119,Fredericktown High,"Fredericktown, MO","805 E Hwy 72, Fredericktown, Missouri 63645",63645,(573) 783-3628,Fredericktown R-I,120,"9,484",https://www.usnews.com//education/best-high-schools/missouri/districts/fredericktown-r-i/fredericktown-high-11626
120,Kickapoo High,"Springfield, MO","3710 S Jefferson, Springfield, Missouri 65807",65807,(417) 523-8500,Springfield R-Xii,121,"9,527",https://www.usnews.com//education/best-high-schools/missouri/districts/springfield-r-xii/kickapoo-high-11925
121,Southern Boone High,"Ashland, MO","14520 Crump Ln, Ashland, Missouri 65010",65010,(573) 657-2144,Southern Boone Co. R-I,122,"9,615",https://www.usnews.com//education/best-high-schools/missouri/districts/southern-boone-co-r-i/southern-boone-high-11915
122,Couch High,"Myrtle, MO","Rte 1 Box 1187, Myrtle, Missouri 65778",65778,(417) 938-4212,Couch R-I,123,"9,791",https://www.usnews.com//education/best-high-schools/missouri/districts/couch-r-i/couch-high-11580
123,McDonald County High,"Anderson, MO","100 Mustang Dr, Anderson, Missouri 64831",64831,(417) 845-3322,Mcdonald Co. R-I,124,"9,816",https://www.usnews.com//education/best-high-schools/missouri/districts/mcdonald-co-r-i/mcdonald-county-high-11762
124,Pilot Grove High,"Pilot Grove, MO","107 School St, Pilot Grove, Missouri 65276",65276,(660) 834-4415,Pilot Grove C-4,125,"10,019",https://www.usnews.com//education/best-high-schools/missouri/districts/pilot-grove-c-4/pilot-grove-high-11845
125,Hermann High,"Hermann, MO","176 Bearcat Crossing, Hermann, Missouri 65041",65041,(573) 486-5425,Gasconade Co. R-I,126,"10,037",https://www.usnews.com//education/best-high-schools/missouri/districts/gasconade-co-r-i/hermann-high-11658
126,Knox Co. High,"Edina, MO","55701 State Hwy 6, Edina, Missouri 63537",63537,(660) 397-2231,Knox Co. R-I,127,"10,093",https://www.usnews.com//education/best-high-schools/missouri/districts/knox-co-r-i/knox-co-high-11601
127,Eldon High,"Eldon, MO","101 S Pine St, Eldon, Missouri 65026",65026,(573) 392-8010,Eldon R-I,128,"10,119",https://www.usnews.com//education/best-high-schools/missouri/districts/eldon-r-i/eldon-high-11603
128,Potosi High,"Potosi, MO","1 Trojan Dr, Potosi, Missouri 63664",63664,(573) 438-2156,Potosi R-III,129,"10,136",https://www.usnews.com//education/best-high-schools/missouri/districts/potosi-r-iii/potosi-high-11854
129,North Shelby High,"Shelbyville, MO","3071 Hwy 15, Shelbyville, Missouri 63469",63469,(573) 633-2410,North Shelby,130,"10,149",https://www.usnews.com//education/best-high-schools/missouri/districts/north-shelby/north-shelby-high-11904
130,Pacific High,"Pacific, MO","425 Indian Warpath Dr, Pacific, Missouri 63069",63069,(636) 271-1414,Meramec Valley R-III,131,"10,271",https://www.usnews.com//education/best-high-schools/missouri/districts/meramec-valley-r-iii/pacific-high-11826
131,Festus Sr. High,"Festus, MO","501 Westwind Dr, Festus, Missouri 63028",63028,(636) 937-5410,Festus R-Vi,132,"10,297",https://www.usnews.com//education/best-high-schools/missouri/districts/festus-r-vi/festus-sr-high-11619
132,Neelyville High,"Neelyville, MO","289 Broadway St, Neelyville, Missouri 63954",63954,(573) 989-3815,Neelyville R-Iv,133,"10,338",https://www.usnews.com//education/best-high-schools/missouri/districts/neelyville-r-iv/neelyville-high-11785
133,Warrensburg High,"Warrensburg, MO","1411 S Ridgeview Dr, Warrensburg, Missouri 64093",64093,(660) 747-2262,Warrensburg R-Vi,134,"10,435",https://www.usnews.com//education/best-high-schools/missouri/districts/warrensburg-r-vi/warrensburg-high-11988
134,Owensville High,"Owensville, MO","3336 Hwy 19, Owensville, Missouri 65066",65066,(573) 437-2174,Gasconade Co. R-II,135,"10,442",https://www.usnews.com//education/best-high-schools/missouri/districts/gasconade-co-r-ii/owensville-high-11823
135,Marshfield High,"Marshfield, MO","370 State Hwy Dd, Marshfield, Missouri 65706",65706,(417) 859-2120,Marshfield R-I,136,"10,455",https://www.usnews.com//education/best-high-schools/missouri/districts/marshfield-r-i/marshfield-high-11759
136,Grandview Sr. High,"Grandview, MO","2300 High Grove Rd, Grandview, Missouri 64030",64030,(816) 316-5800,Grandview C-4,137,"10,474",https://www.usnews.com//education/best-high-schools/missouri/districts/grandview-c-4/grandview-sr-high-11637
137,New Haven High,"New Haven, MO","100 Park Dr, New Haven, Missouri 63068",63068,(573) 237-2629,New Haven,138,"10,491",https://www.usnews.com//education/best-high-schools/missouri/districts/new-haven/new-haven-high-11792
138,Community High,"Laddonia, MO","35063 Hwy Bb, Laddonia, Missouri 63352",63352,(855) 708-7567,Community R-Vi,139,"10,514",https://www.usnews.com//education/best-high-schools/missouri/districts/community-r-vi/community-high-11576
139,Jefferson City High,"Jefferson City, MO","609 Union, Jefferson City, Missouri 65101",65101,(573) 659-3050,Jefferson City,140,"10,518",https://www.usnews.com//education/best-high-schools/missouri/districts/jefferson-city/jefferson-city-high-11689
140,Wright City High,"Wright City, MO","520 Westwoods Rd, Wright City, Missouri 63390",63390,(636) 745-7500,Wright City R-II Of Warren Co.,141,"10,520",https://www.usnews.com//education/best-high-schools/missouri/districts/wright-city-r-ii-of-warren-co/wright-city-high-12017
141,Eminence High,"Eminence, MO","505 South 6th Street, Eminence, Missouri 65466",65466,(573) 226-3252,Eminence R-I,142,"10,580",https://www.usnews.com//education/best-high-schools/missouri/districts/eminence-r-i/eminence-high-11605
142,Morgan Co. High,"Versailles, MO","913 W Newton, Versailles, Missouri 65084",65084,(573) 378-4697,Morgan Co. R-II,143,"10,621",https://www.usnews.com//education/best-high-schools/missouri/districts/morgan-co-r-ii/morgan-co-high-11984
143,Blair Oaks High,"Jefferson City, MO","6124 Falcon Ln, Jefferson City, Missouri 65101",65101,(573) 635-8514,Blair Oaks R-II,144,"10,726",https://www.usnews.com//education/best-high-schools/missouri/districts/blair-oaks-r-ii/blair-oaks-high-11575
144,Orchard Farm Sr. High,"St Charles, MO","2175 Hwy V, St Charles, Missouri 63301",63301,(636) 250-5400,Orchard Farm R-V,145,"10,782",https://www.usnews.com//education/best-high-schools/missouri/districts/orchard-farm-r-v/orchard-farm-sr-high-11817
145,Niangua High,"Niangua, MO","301 Rumsey St, Niangua, Missouri 65713",65713,(417) 473-6101,Niangua R-V,146,"10,798",https://www.usnews.com//education/best-high-schools/missouri/districts/niangua-r-v/niangua-high-11795
146,Bakersfield High,"Bakersfield, MO","357 State Hwy O, Bakersfield, Missouri 65609",65609,(417) 284-3744,Bakersfield R-Iv,147,"10,810",https://www.usnews.com//education/best-high-schools/missouri/districts/bakersfield-r-iv/bakersfield-high-11501
147,South Callaway High,"Mokane, MO","10135 State Rd C, Mokane, Missouri 65059",65059,(573) 676-5225,South Callaway Co. R-II,148,"10,831",https://www.usnews.com//education/best-high-schools/missouri/districts/south-callaway-co-r-ii/south-callaway-high-11911
148,Salem Sr. High,"Salem, MO","1400 Tiger Pride Dr, Salem, Missouri 65560",65560,(573) 729-6642,Salem R-80,149,"10,846",https://www.usnews.com//education/best-high-schools/missouri/districts/salem-r-80/salem-sr-high-11891
149,Green City High,"Green City, MO","301 N East St, Green City, Missouri 63545",63545,(660) 874-4127,Green City R-I,150,"10,910",https://www.usnews.com//education/best-high-schools/missouri/districts/green-city-r-i/green-city-high-11639
150,Carl Junction High School,"Carl Junction, MO","206 S Roney, Carl Junction, Missouri 64834",64834,(417) 649-7081,Carl Junction R-I,151,"10,936",https://www.usnews.com//education/best-high-schools/missouri/districts/carl-junction-r-i/carl-junction-high-school-11548
151,Mansfield High,"Mansfield, MO","315 W Ohio St, Mansfield, Missouri 65704",65704,(417) 924-3236,Mansfield R-Iv,152,"10,961",https://www.usnews.com//education/best-high-schools/missouri/districts/mansfield-r-iv/mansfield-high-11751
152,Union High,"Union, MO","1217 West Main, Union, Missouri 63084",63084,(636) 583-2513,Union R-Xi,153,"10,974",https://www.usnews.com//education/best-high-schools/missouri/districts/union-r-xi/union-high-11976
153,Morgan Co. R-I High,"Stover, MO","701 N Oak St, Stover, Missouri 65078",65078,(573) 377-2218,Morgan Co. R-I,154,"11,090",https://www.usnews.com//education/best-high-schools/missouri/districts/morgan-co-r-i/morgan-co-r-i-high-11959
154,Alton High,"Alton, MO","Route 2 Box 2180, Alton, Missouri 65606",65606,(417) 778-7215,Alton R-Iv,155,"11,128",https://www.usnews.com//education/best-high-schools/missouri/districts/alton-r-iv/alton-high-11493
155,Northwest High,"Hughesville, MO","16215 Hwy H, Hughesville, Missouri 65334",65334,(660) 827-0774,Pettis Co. R-V,156,"11,197",https://www.usnews.com//education/best-high-schools/missouri/districts/pettis-co-r-v/northwest-high-11671
156,Benton High,"St Joseph, MO","5655 S Fourth, St Joseph, Missouri 64504",64504,(816) 671-4030,St. Joseph,157,"11,277",https://www.usnews.com//education/best-high-schools/missouri/districts/st-joseph/benton-high-11887
157,Jefferson High School,"Festus, MO","7 Blue Jay Way, Festus, Missouri 63028",63028,(636) 933-6900,Jefferson Co. R-Vii,158,"11,382",https://www.usnews.com//education/best-high-schools/missouri/districts/jefferson-co-r-vii/jefferson-high-school-11691
158,La Plata High,"La Plata, MO","201 W Moore, La Plata, Missouri 63549",63549,(660) 332-7001,La Plata R-II,159,"11,406",https://www.usnews.com//education/best-high-schools/missouri/districts/la-plata-r-ii/la-plata-high-11717
159,Stockton High,"Stockton, MO","#1 Tiger Dr, Stockton, Missouri 65785",65785,(417) 276-8806,Stockton R-I,160,"11,551",https://www.usnews.com//education/best-high-schools/missouri/districts/stockton-r-i/stockton-high-11957
160,Bernie High,"Bernie, MO","516 W Main, Bernie, Missouri 63822",63822,(573) 293-5334,Bernie R-Xiii,161,"11,585",https://www.usnews.com//education/best-high-schools/missouri/districts/bernie-r-xiii/bernie-high-11508
161,North Harrison High,"Eagleville, MO","12023 Fir St, Eagleville, Missouri 64442",64442,(660) 867-5221,North Harrison R-III,162,"11,619",https://www.usnews.com//education/best-high-schools/missouri/districts/north-harrison-r-iii/north-harrison-high-11802
162,Van-Far Jr./Sr. High,"Vandalia, MO","2200 Hwy 54 West, Vandalia, Missouri 63382",63382,(573) 594-6442,Van-Far R-I,163,"11,668",https://www.usnews.com//education/best-high-schools/missouri/districts/van-far-r-i/van-far-jr-sr-high-11982
163,West County High,"Park Hills, MO","768 Hwy M, Park Hills, Missouri 63601",63601,(573) 562-7521,West St. Francois Co. R-Iv,164,"11,718",https://www.usnews.com//education/best-high-schools/missouri/districts/west-st-francois-co-r-iv/west-county-high-11723
164,Clearwater High,"Piedmont, MO","Rte 4 Box 1004, Piedmont, Missouri 63957",63957,(573) 223-4524,Clearwater R-I,165,"11,744",https://www.usnews.com//education/best-high-schools/missouri/districts/clearwater-r-i/clearwater-high-11570
165,Blue Eye High,"Blue Eye, MO","658 State Hwy Ee, Blue Eye, Missouri 65611",65611,(417) 779-5331,Blue Eye R-V,166,"11,759",https://www.usnews.com//education/best-high-schools/missouri/districts/blue-eye-r-v/blue-eye-high-11513
166,Skyline High,"Urbana, MO","Rte 1 Box 838, Urbana, Missouri 65767",65767,(417) 993-4226,Hickory Co. R-I,167,"11,784",https://www.usnews.com//education/best-high-schools/missouri/districts/hickory-co-r-i/skyline-high-11660
167,Lamar High,"Lamar, MO","202 W 7th, Lamar, Missouri 64759",64759,(417) 682-5571,Lamar R-I,168,"11,811",https://www.usnews.com//education/best-high-schools/missouri/districts/lamar-r-i/lamar-high-11719
168,Crest Ridge High,"Centerview, MO","92 Nw 58 Hwy, Centerview, Missouri 64019",64019,(660) 656-3391,Johnson Co. R-Vii,169,"11,833",https://www.usnews.com//education/best-high-schools/missouri/districts/johnson-co-r-vii/crest-ridge-high-11555
169,Lathrop High,"Lathrop, MO","102 N School Dr, Lathrop, Missouri 64465",64465,(816) 528-7400,Lathrop R-II,170,"11,845",https://www.usnews.com//education/best-high-schools/missouri/districts/lathrop-r-ii/lathrop-high-11721
170,Golden City High,"Golden City, MO","1208 Walnut St, Golden City, Missouri 64748",64748,(417) 537-8311,Golden City R-III,171,"11,934",https://www.usnews.com//education/best-high-schools/missouri/districts/golden-city-r-iii/golden-city-high-11635
171,Spokane High,"Spokane, MO","1123 Spokane Rd, Spokane, Missouri 65754",65754,(417) 443-3502,Spokane R-Vii,172,"11,937",https://www.usnews.com//education/best-high-schools/missouri/districts/spokane-r-vii/spokane-high-11921
172,Montgomery Co. High,"Montgomery City, MO","394 N Hwy 19, Montgomery City, Missouri 63361",63361,(573) 564-2213,Montgomery Co. R-II,173,"11,940",https://www.usnews.com//education/best-high-schools/missouri/districts/montgomery-co-r-ii/montgomery-co-high-11775
173,Laquey R-V High,"Laquey, MO","27600 Hwy Aa, Laquey, Missouri 65534",65534,(573) 765-4051,Laquey R-V,174,"11,996",https://www.usnews.com//education/best-high-schools/missouri/districts/laquey-r-v/laquey-r-v-high-11720
174,St. Elizabeth High,"St Elizabeth, MO","Hwy 52, St Elizabeth, Missouri 65075",65075,(573) 493-2246,St. Elizabeth R-Iv,175,"12,120",https://www.usnews.com//education/best-high-schools/missouri/districts/st-elizabeth-r-iv/st-elizabeth-high-11933
175,Nevada High,"Nevada, MO","800 W Hickory St, Nevada, Missouri 64772",64772,(417) 448-2020,Nevada R-V,176,"12,150",https://www.usnews.com//education/best-high-schools/missouri/districts/nevada-r-v/nevada-high-11787
176,Stoutland High,"Stoutland, MO","7584 State Road T, Stoutland, Missouri 65567",65567,(417) 286-3711,Stoutland R-II,177,"12,182",https://www.usnews.com//education/best-high-schools/missouri/districts/stoutland-r-ii/stoutland-high-11958
177,Diamond High,"Diamond, MO","401 S Main, Diamond, Missouri 64840",64840,(417) 325-5188,Diamond R-Iv,178,"12,184",https://www.usnews.com//education/best-high-schools/missouri/districts/diamond-r-iv/diamond-high-11593
178,Twin Rivers High,"Broseley, MO","9327 Hwy 51, Broseley, Missouri 63932",63932,(573) 328-4730,Twin Rivers R-X,179,"12,213",https://www.usnews.com//education/best-high-schools/missouri/districts/twin-rivers-r-x/twin-rivers-high-11975
179,Parkview High,"Springfield, MO","516 W Meadowmere, Springfield, Missouri 65807",65807,(417) 523-9200,Springfield R-Xii,180,"12,318",https://www.usnews.com//education/best-high-schools/missouri/districts/springfield-r-xii/parkview-high-11926
180,Hollister High,"Hollister, MO","2112 State Hwy Bb, Hollister, Missouri 65672",65672,(417) 243-4045,Hollister R-V,181,"12,333",https://www.usnews.com//education/best-high-schools/missouri/districts/hollister-r-v/hollister-high-11669
181,Mt. Vernon High,"Mt Vernon, MO","400 W Hwy 174, Mt Vernon, Missouri 65712",65712,(417) 466-7526,Mt. Vernon R-V,182,"12,454",https://www.usnews.com//education/best-high-schools/missouri/districts/mt-vernon-r-v/mt-vernon-high-11781
182,Iberia High,"Iberia, MO","201 Pemberton Dr, Iberia, Missouri 65486",65486,(573) 793-2228,Iberia R-V,183,"12,481",https://www.usnews.com//education/best-high-schools/missouri/districts/iberia-r-v/iberia-high-11675
183,Fatima High,"Westphalia, MO","143 E Main, Westphalia, Missouri 65085",65085,(573) 455-2550,Osage Co. R-III,184,"12,501",https://www.usnews.com//education/best-high-schools/missouri/districts/osage-co-r-iii/fatima-high-12005
184,Ste. Genevieve Sr. High,"Ste Genevieve, MO","715 Washington St, Ste Genevieve, Missouri 63670",63670,(573) 883-4500,Ste. Genevieve Co. R-II,185,"12,520",https://www.usnews.com//education/best-high-schools/missouri/districts/ste-genevieve-co-r-ii/ste-genevieve-sr-high-11953
185,Green Ridge High,"Green Ridge, MO","401 W Pettis St, Green Ridge, Missouri 65332",65332,(660) 527-3315,Green Ridge R-Viii,186,"12,537",https://www.usnews.com//education/best-high-schools/missouri/districts/green-ridge-r-viii/green-ridge-high-11640
186,Raytown South Sr. High,"Raytown, MO","8211 Sterling Ave, Raytown, Missouri 64138",64138,(816) 268-7330,Raytown C-2,187,"12,554",https://www.usnews.com//education/best-high-schools/missouri/districts/raytown-c-2/raytown-south-sr-high-11862
187,Greenfield High,"Greenfield, MO","410 W College, Greenfield, Missouri 65661",65661,(417) 637-5328,Greenfield R-Iv,188,"12,619",https://www.usnews.com//education/best-high-schools/missouri/districts/greenfield-r-iv/greenfield-high-11641
188,Charleston High,"Charleston, MO","606 S. Thorn St, Charleston, Missouri 63834",63834,(573) 683-3761,Charleston R-I,189,"12,621",https://www.usnews.com//education/best-high-schools/missouri/districts/charleston-r-i/charleston-high-11565
189,Sikeston Sr. High,"Sikeston, MO","200 Pine St, Sikeston, Missouri 63801",63801,(573) 472-8856,Sikeston R-6,190,"12,797",https://www.usnews.com//education/best-high-schools/missouri/districts/sikeston-r-6/sikeston-sr-high-11906
190,Adair Co. High,"Novinger, MO","600 Rombauer Ave, Novinger, Missouri 63559",63559,(660) 488-6411,Adair Co. R-I,191-291,"12,935-17,245",https://www.usnews.com//education/best-high-schools/missouri/districts/adair-co-r-i/adair-co-high-11812
191,Adrian Sr. High,"Adrian, MO","601 N Houston, Adrian, Missouri 64720",64720,(816) 297-4460,Adrian R-III,191-291,"12,935-17,245",https://www.usnews.com//education/best-high-schools/missouri/districts/adrian-r-iii/adrian-sr-high-11488
192,Alta Vista Charter School,"Kansas City, MO","1524 Paseo Blvd, Kansas City, Missouri 64108",64108,(816) 471-2582,Alta Vista Charter Sch.,191-291,"12,935-17,245",https://www.usnews.com//education/best-high-schools/missouri/districts/alta-vista-charter-sch/alta-vista-charter-school-11474
193,Appleton City High,"Appleton City, MO","408 W 4th, Appleton City, Missouri 64724",64724,(660) 476-2118,Appleton City R-II,191-291,"12,935-17,245",https://www.usnews.com//education/best-high-schools/missouri/districts/appleton-city-r-ii/appleton-city-high-11494
194,Archie High,"Archie, MO","302 W State Rte A, Archie, Missouri 64725",64725,(816) 293-5312,Archie R-V,191-291,"12,935-17,245",https://www.usnews.com//education/best-high-schools/missouri/districts/archie-r-v/archie-high-11496
195,Ash Grove High,"Ash Grove, MO","100 N Maple Ln, Ash Grove, Missouri 65604",65604,(417) 751-2330,Ash Grove R-Iv,191-291,"12,935-17,245",https://www.usnews.com//education/best-high-schools/missouri/districts/ash-grove-r-iv/ash-grove-high-11497
196,Bevier High,"Bevier, MO","400 Bloomington St, Bevier, Missouri 63532",63532,(660) 773-5213,Bevier C-4,191-291,"12,935-17,245",https://www.usnews.com//education/best-high-schools/missouri/districts/bevier-c-4/bevier-high-11509
197,Billings Sr. High,"Billings, MO","118 W Mt Vernon, Billings, Missouri 65610",65610,(417) 744-2551,Billings R-Iv,191-291,"12,935-17,245",https://www.usnews.com//education/best-high-schools/missouri/districts/billings-r-iv/billings-sr-high-11510
198,Bismarck R-V High,"Bismarck, MO","Indian Trails Dr, Bismarck, Missouri 63624",63624,(573) 734-6111,Bismarck R-V,191-291,"12,935-17,245",https://www.usnews.com//education/best-high-schools/missouri/districts/bismarck-r-v/bismarck-r-v-high-11511
199,Bloomfield High,"Bloomfield, MO","505 Court St, Bloomfield, Missouri 63825",63825,(573) 568-2146,Bloomfield R-Xiv,191-291,"12,935-17,245",https://www.usnews.com//education/best-high-schools/missouri/districts/bloomfield-r-xiv/bloomfield-high-11512
200,Bowling Green High,"Bowling Green, MO","700 West Adams Street, Bowling Green, Missouri 63334",63334,(573) 324-5341,Bowling Green R-I,191-291,"12,935-17,245",https://www.usnews.com//education/best-high-schools/missouri/districts/bowling-green-r-i/bowling-green-high-11522
201,Bradleyville High,"Bradleyville, MO","16474 N State Hwy 125, Bradleyville, Missouri 65614",65614,(417) 796-2288,Bradleyville R-I,191-291,"12,935-17,245",https://www.usnews.com//education/best-high-schools/missouri/districts/bradleyville-r-i/bradleyville-high-11523
202,Brookfield High,"Brookfield, MO","124 Pershing Rd, Brookfield, Missouri 64628",64628,(660) 258-7242,Brookfield R-III,191-291,"12,935-17,245",https://www.usnews.com//education/best-high-schools/missouri/districts/brookfield-r-iii/brookfield-high-11531
203,Butler High,"Butler, MO","420 S Fulton St, Butler, Missouri 64730",64730,(660) 679-6121,Butler R-V,191-291,"12,935-17,245",https://www.usnews.com//education/best-high-schools/missouri/districts/butler-r-v/butler-high-11538
204,California High,"California, MO","1501 W Buchanan St, California, Missouri 65018",65018,(573) 796-4911,Moniteau Co. R-I,191-291,"12,935-17,245",https://www.usnews.com//education/best-high-schools/missouri/districts/moniteau-co-r-i/california-high-11542
205,Cassville High,"Cassville, MO","1501 Main St, Cassville, Missouri 65625",65625,(417) 847-3137,Cassville R-Iv,191-291,"12,935-17,245",https://www.usnews.com//education/best-high-schools/missouri/districts/cassville-r-iv/cassville-high-11552
206,Chillicothe High,"Chillicothe, MO","2801 Hornet Rd, Chillicothe, Missouri 64601",64601,(660) 646-0700,Chillicothe R-II,191-291,"12,935-17,245",https://www.usnews.com//education/best-high-schools/missouri/districts/chillicothe-r-ii/chillicothe-high-11567
207,Clinton Sr. High,"Clinton, MO","1106 S 2nd Street, Clinton, Missouri 64735",64735,(660) 885-2247,Clinton,191-291,"12,935-17,245",https://www.usnews.com//education/best-high-schools/missouri/districts/clinton/clinton-sr-high-11573
208,Cole Camp High,"Cole Camp, MO","500 Keeney St, Cole Camp, Missouri 65325",65325,(660) 668-3751,Cole Camp R-I,191-291,"12,935-17,245",https://www.usnews.com//education/best-high-schools/missouri/districts/cole-camp-r-i/cole-camp-high-11574
209,Crane High,"Crane, MO","209 Pirate Ln, Crane, Missouri 65633",65633,(417) 723-5300,Crane R-III,191-291,"12,935-17,245",https://www.usnews.com//education/best-high-schools/missouri/districts/crane-r-iii/crane-high-11582
210,Crocker High,"Crocker, MO","601 N Commercial, Crocker, Missouri 65452",65452,(573) 736-5000,Crocker R-II,191-291,"12,935-17,245",https://www.usnews.com//education/best-high-schools/missouri/districts/crocker-r-ii/crocker-high-11584
211,Crystal City High,"Crystal City, MO","1100 Mississippi, Crystal City, Missouri 63019",63019,(636) 937-2005,Crystal City 47,191-291,"12,935-17,245",https://www.usnews.com//education/best-high-schools/missouri/districts/crystal-city-47/crystal-city-high-11585
212,Delasalle Charter School,"Kansas City, MO","3737 Troost Ave, Kansas City, Missouri 64109",64109,(816) 561-4445,Delasalle Charter School,191-291,"12,935-17,245",https://www.usnews.com//education/best-high-schools/missouri/districts/delasalle-charter-school/delasalle-charter-school-92064
213,Desoto Sr. High,"Desoto, MO","815 Amvets Dr, Desoto, Missouri 63020",63020,(636) 586-1050,Desoto 73,191-291,"12,935-17,245",https://www.usnews.com//education/best-high-schools/missouri/districts/desoto-73/desoto-sr-high-11588
214,Dixon High,"Dixon, MO","300 E. High School Dr, Dixon, Missouri 65459",65459,(573) 759-7163,Dixon R-I,191-291,"12,935-17,245",https://www.usnews.com//education/best-high-schools/missouri/districts/dixon-r-i/dixon-high-11594
215,Doniphan High,"Doniphan, MO","5 Ball Park Rd, Doniphan, Missouri 63935",63935,(573) 996-3667,Doniphan R-I,191-291,"12,935-17,245",https://www.usnews.com//education/best-high-schools/missouri/districts/doniphan-r-i/doniphan-high-11595
216,East Buchanan High,"Gower, MO","100 Smith St, Gower, Missouri 64454",64454,(816) 424-6460,East Buchanan Co. C-1,191-291,"12,935-17,245",https://www.usnews.com//education/best-high-schools/missouri/districts/east-buchanan-co-c-1/east-buchanan-high-11600
217,East Carter Co. R-II High,"Ellsinore, MO","24 S Herren Ave, Ellsinore, Missouri 63937",63937,(573) 322-5653,East Carter Co. R-II,191-291,"12,935-17,245",https://www.usnews.com//education/best-high-schools/missouri/districts/east-carter-co-r-ii/east-carter-co-r-ii-high-11598
218,East High School,"Kansas City, MO","1924 Van Brunt Blvd, Kansas City, Missouri 64127",64127,(816) 418-3125,Kansas City 33,191-291,"12,935-17,245",https://www.usnews.com//education/best-high-schools/missouri/districts/kansas-city-33/east-high-school-11701
219,Ellington High School,"Ellington, MO","1 School St, Ellington, Missouri 63638",63638,(573) 663-2291,Southern Reynolds Co. R-II,191-291,"12,935-17,245",https://www.usnews.com//education/best-high-schools/missouri/districts/southern-reynolds-co-r-ii/ellington-high-school-11916
220,Elsberry High,"Elsberry, MO","138 Tomahawk Dr, Elsberry, Missouri 63343",63343,(573) 898-5554,Elsberry R-II,191-291,"12,935-17,245",https://www.usnews.com//education/best-high-schools/missouri/districts/elsberry-r-ii/elsberry-high-11604
221,Eugene High,"Eugene, MO","14803 Hwy 17, Eugene, Missouri 65032",65032,(573) 498-4001,Cole Co. R-V,191-291,"12,935-17,245",https://www.usnews.com//education/best-high-schools/missouri/districts/cole-co-r-v/eugene-high-11606
222,Exeter High,"Exeter, MO","101 Locust Street, Exeter, Missouri 65647",65647,(417) 835-3745,Exeter R-Vi,191-291,"12,935-17,245",https://www.usnews.com//education/best-high-schools/missouri/districts/exeter-r-vi/exeter-high-11609
223,Gallatin High,"Gallatin, MO","602 S Olive, Gallatin, Missouri 64640",64640,(660) 663-2171,Gallatin R-V,191-291,"12,935-17,245",https://www.usnews.com//education/best-high-schools/missouri/districts/gallatin-r-v/gallatin-high-11630
224,Glasgow High,"Glasgow, MO","860 Randolph, Glasgow, Missouri 65254",65254,(660) 338-2012,Glasgow,191-291,"12,935-17,245",https://www.usnews.com//education/best-high-schools/missouri/districts/glasgow/glasgow-high-11634
225,Grand Center Arts Academy High,"St. Louis, MO","711 North Grand Avenue, St. Louis, Missouri 63103",63103,(314) 533-1791,Grand Center Arts Academy,191-291,"12,935-17,245",https://www.usnews.com//education/best-high-schools/missouri/districts/grand-center-arts-academy/grand-center-arts-academy-high-154672
226,Harrisburg High,"Harrisburg, MO","801 S Harris, Harrisburg, Missouri 65256",65256,(573) 875-5602,Harrisburg R-Viii,191-291,"12,935-17,245",https://www.usnews.com//education/best-high-schools/missouri/districts/harrisburg-r-viii/harrisburg-high-11650
227,Harrisonville High,"Harrisonville, MO","1504 E Elm, Harrisonville, Missouri 64701",64701,(816) 380-3273,Harrisonville R-Ix,191-291,"12,935-17,245",https://www.usnews.com//education/best-high-schools/missouri/districts/harrisonville-r-ix/harrisonville-high-11651
228,Hillcrest High,"Springfield, MO","3319 N Grant, Springfield, Missouri 65803",65803,(417) 523-8000,Springfield R-Xii,191-291,"12,935-17,245",https://www.usnews.com//education/best-high-schools/missouri/districts/springfield-r-xii/hillcrest-high-11924
229,Hogan Preparatory Academy,"Kansas City, MO","1221 E Meyer Blvd, Kansas City, Missouri 64131",64131,(816) 444-3464,Hogan Preparatory Academy,191-291,"12,935-17,245",https://www.usnews.com//education/best-high-schools/missouri/districts/hogan-preparatory-academy/hogan-preparatory-academy-11468
230,Holden High,"Holden, MO","1901 S Main, Holden, Missouri 64040",64040,(816) 732-5523,Holden R-III,191-291,"12,935-17,245",https://www.usnews.com//education/best-high-schools/missouri/districts/holden-r-iii/holden-high-11668
231,Houston High,"Houston, MO","423 W Pine, Houston, Missouri 65483",65483,(417) 967-3024,Houston R-I,191-291,"12,935-17,245",https://www.usnews.com//education/best-high-schools/missouri/districts/houston-r-i/houston-high-11670
232,King City High,"King City, MO","300 N Grand, King City, Missouri 64463",64463,(660) 535-4319,King City R-I,191-291,"12,935-17,245",https://www.usnews.com//education/best-high-schools/missouri/districts/king-city-r-i/king-city-high-11710
233,Kingsville High,"Kingsville, MO","101 E Adriatic, Kingsville, Missouri 64061",64061,(816) 597-3422,Kingsville R-I,191-291,"12,935-17,245",https://www.usnews.com//education/best-high-schools/missouri/districts/kingsville-r-i/kingsville-high-11711
234,Lafayette Co. High,"Higginsville, MO","807a W 31st, Higginsville, Missouri 64037",64037,(660) 584-3661,Lafayette Co. C-1,191-291,"12,935-17,245",https://www.usnews.com//education/best-high-schools/missouri/districts/lafayette-co-c-1/lafayette-co-high-11665
235,Licking High,"Licking, MO","125 College Avenue, Licking, Missouri 65542",65542,(573) 674-2711,Licking R-Viii,191-291,"12,935-17,245",https://www.usnews.com//education/best-high-schools/missouri/districts/licking-r-viii/licking-high-11737
236,Linn Co. High,"Purdin, MO","15533 Hwy Kk, Purdin, Missouri 64674",64674,(660) 244-5035,Linn Co. R-I,191-291,"12,935-17,245",https://www.usnews.com//education/best-high-schools/missouri/districts/linn-co-r-i/linn-co-high-11532
237,Linn High,"Linn, MO","141 Wildcat Drive, Linn, Missouri 65051",65051,(573) 897-4216,Osage Co. R-II,191-291,"12,935-17,245",https://www.usnews.com//education/best-high-schools/missouri/districts/osage-co-r-ii/linn-high-11740
238,Logan-Rogersville High,"Rogersville, MO","4700 S State Highway 125, Rogersville, Missouri 65742",65742,(417) 753-2813,Logan-Rogersville R-Viii,191-291,"12,935-17,245",https://www.usnews.com//education/best-high-schools/missouri/districts/logan-rogersville-r-viii/logan-rogersville-high-11742
239,Louisiana High,"Louisiana, MO","3321 W Georgia St, Louisiana, Missouri 63353",63353,(573) 754-6181,Louisiana R-II,191-291,"12,935-17,245",https://www.usnews.com//education/best-high-schools/missouri/districts/louisiana-r-ii/louisiana-high-11744
240,Madison High,"Madison, MO","309 Thomas St, Madison, Missouri 65263",65263,(660) 291-4515,Madison C-3,191-291,"12,935-17,245",https://www.usnews.com//education/best-high-schools/missouri/districts/madison-c-3/madison-high-11748
241,Marion C. Early High,"Morrisville, MO","5309 S Main, Morrisville, Missouri 65710",65710,(417) 376-2216,Marion C. Early R-V,191-291,"12,935-17,245",https://www.usnews.com//education/best-high-schools/missouri/districts/marion-c-early-r-v/marion-c-early-high-11754
242,Marshall Sr. High,"Marshall, MO","805 S Miami, Marshall, Missouri 65340",65340,(660) 886-2244,Marshall,191-291,"12,935-17,245",https://www.usnews.com//education/best-high-schools/missouri/districts/marshall/marshall-sr-high-11758
243,Maysville Jr.-Sr. High,"Maysville, MO","601 W Main, Maysville, Missouri 64469",64469,(816) 449-2154,Maysville R-I,191-291,"12,935-17,245",https://www.usnews.com//education/best-high-schools/missouri/districts/maysville-r-i/maysville-jr-sr-high-11761
244,Meadville High,"Meadville, MO","101 W Crandall, Meadville, Missouri 64659",64659,(660) 938-4112,Meadville R-Iv,191-291,"12,935-17,245",https://www.usnews.com//education/best-high-schools/missouri/districts/meadville-r-iv/meadville-high-11763
245,Mercer High,"Mercer, MO","22931 Main St, Mercer, Missouri 64661",64661,(660) 382-4214,North Mercer Co. R-III,191-291,"12,935-17,245",https://www.usnews.com//education/best-high-schools/missouri/districts/north-mercer-co-r-iii/mercer-high-11767
246,Mexico High,"Mexico, MO","639 N Wade, Mexico, Missouri 65265",65265,(573) 581-4296,Mexico 59,191-291,"12,935-17,245",https://www.usnews.com//education/best-high-schools/missouri/districts/mexico-59/mexico-high-11768
247,Midway High,"Cleveland, MO","5801 E State Rte 2, Cleveland, Missouri 64734",64734,(816) 250-2994,Midway R-I,191-291,"12,935-17,245",https://www.usnews.com//education/best-high-schools/missouri/districts/midway-r-i/midway-high-12004
248,Moberly Sr. High,"Moberly, MO","1625 Gratz Brown Rd, Moberly, Missouri 65270",65270,(660) 269-2660,Moberly,191-291,"12,935-17,245",https://www.usnews.com//education/best-high-schools/missouri/districts/moberly/moberly-sr-high-11772
249,Monroe City R-I High,"Monroe City, MO","401 Hwys 24-36 East, Monroe City, Missouri 63456",63456,(573) 735-4626,Monroe City R-I,191-291,"12,935-17,245",https://www.usnews.com//education/best-high-schools/missouri/districts/monroe-city-r-i/monroe-city-r-i-high-11774
250,Mountain Grove High,"Mountain Grove, MO","420 N Main, Mountain Grove, Missouri 65711",65711,(417) 926-3177,Mountain Grove R-III,191-291,"12,935-17,245",https://www.usnews.com//education/best-high-schools/missouri/districts/mountain-grove-r-iii/mountain-grove-high-11779
251,Muriel W. Battle High School,"Columbia, MO","7575 St. Charles Road, Columbia, Missouri 65202",65202,(573) 214-3300,Columbia 93,191-291,"12,935-17,245",https://www.usnews.com//education/best-high-schools/missouri/districts/columbia-93/muriel-w-battle-high-school-147496
252,New Bloomfield High,"New Bloomfield, MO","307 Redwood Dr, New Bloomfield, Missouri 65063",65063,(573) 491-3700,New Bloomfield R-III,191-291,"12,935-17,245",https://www.usnews.com//education/best-high-schools/missouri/districts/new-bloomfield-r-iii/new-bloomfield-high-11789
253,North Andrew High,"Rosendale, MO","9120 Hwy 48, Rosendale, Missouri 64483",64483,(816) 567-2525,North Andrew Co. R-Vi,191-291,"12,935-17,245",https://www.usnews.com//education/best-high-schools/missouri/districts/north-andrew-co-r-vi/north-andrew-high-11800
254,Northeast High,"Kansas City, MO","415 S Van Brunt, Kansas City, Missouri 64124",64124,(816) 418-3300,Kansas City 33,191-291,"12,935-17,245",https://www.usnews.com//education/best-high-schools/missouri/districts/kansas-city-33/northeast-high-11697
255,Oak Ridge High,"Oak Ridge, MO","4198 State Hwy E, Oak Ridge, Missouri 63769",63769,(573) 266-3630,Oak Ridge R-Vi,191-291,"12,935-17,245",https://www.usnews.com//education/best-high-schools/missouri/districts/oak-ridge-r-vi/oak-ridge-high-11814
256,Odessa High,"Odessa, MO","713 S Third St, Odessa, Missouri 64076",64076,(816) 633-5533,Odessa R-Vii,191-291,"12,935-17,245",https://www.usnews.com//education/best-high-schools/missouri/districts/odessa-r-vii/odessa-high-11815
257,Oran High,"Oran, MO","310 Church St, Oran, Missouri 63771",63771,(573) 262-3345,Oran R-III,191-291,"12,935-17,245",https://www.usnews.com//education/best-high-schools/missouri/districts/oran-r-iii/oran-high-11816
258,Orrick High,"Orrick, MO","100 Kirkham, Orrick, Missouri 64077",64077,(816) 770-3327,Orrick R-Xi,191-291,"12,935-17,245",https://www.usnews.com//education/best-high-schools/missouri/districts/orrick-r-xi/orrick-high-11819
259,Paseo Acad. of Performing Arts,"Kansas City, MO","4747 Flora Ave, Kansas City, Missouri 64110",64110,(816) 418-3525,Kansas City 33,191-291,"12,935-17,245",https://www.usnews.com//education/best-high-schools/missouri/districts/kansas-city-33/paseo-acad-of-performing-arts-11698
260,Plato High,"Plato, MO","10645 Plato Dr, Plato, Missouri 65552",65552,(417) 458-4980,Plato R-V,191-291,"12,935-17,245",https://www.usnews.com//education/best-high-schools/missouri/districts/plato-r-v/plato-high-11846
261,Pleasant Hill High,"Pleasant Hill, MO","1 Rooster Way, Pleasant Hill, Missouri 64080",64080,(816) 540-3111,Pleasant Hill R-III,191-291,"12,935-17,245",https://www.usnews.com//education/best-high-schools/missouri/districts/pleasant-hill-r-iii/pleasant-hill-high-11849
262,Pleasant Hope High,"Pleasant Hope, MO","303 N Main, Pleasant Hope, Missouri 65725",65725,(417) 267-2271,Pleasant Hope R-Vi,191-291,"12,935-17,245",https://www.usnews.com//education/best-high-schools/missouri/districts/pleasant-hope-r-vi/pleasant-hope-high-11850
263,Puxico High,"Puxico, MO","481 N Bedford St, Puxico, Missouri 63960",63960,(573) 222-3175,Puxico R-Viii,191-291,"12,935-17,245",https://www.usnews.com//education/best-high-schools/missouri/districts/puxico-r-viii/puxico-high-11859
264,Rich Hill High,"Rich Hill, MO","703 N Third, Rich Hill, Missouri 64779",64779,(417) 395-4191,Rich Hill R-Iv,191-291,"12,935-17,245",https://www.usnews.com//education/best-high-schools/missouri/districts/rich-hill-r-iv/rich-hill-high-11865
265,Ritenour Sr. High,"St Louis, MO","9100 St Charles Rock Rd, St Louis, Missouri 63114",63114,(314) 493-6105,Ritenour,191-291,"12,935-17,245",https://www.usnews.com//education/best-high-schools/missouri/districts/ritenour/ritenour-sr-high-11871
266,Rock Port High,"Rock Port, MO","600 S Nebraska St, Rock Port, Missouri 64482",64482,(660) 744-6296,Rock Port R-II,191-291,"12,935-17,245",https://www.usnews.com//education/best-high-schools/missouri/districts/rock-port-r-ii/rock-port-high-11879
267,Russellville High,"Russellville, MO","13600 Rte C, Russellville, Missouri 65074",65074,(573) 782-3973,Cole Co. R-I,191-291,"12,935-17,245",https://www.usnews.com//education/best-high-schools/missouri/districts/cole-co-r-i/russellville-high-11886
268,Schuyler Co. High,"Queen City, MO","21701 Highway 63, Queen City, Missouri 63561",63561,(660) 766-2424,Schuyler Co. R-I,191-291,"12,935-17,245",https://www.usnews.com//education/best-high-schools/missouri/districts/schuyler-co-r-i/schuyler-co-high-11897
269,Seneca High,"Seneca, MO","1110 Neosho St, Seneca, Missouri 64865",64865,(417) 776-3926,Seneca R-Vii,191-291,"12,935-17,245",https://www.usnews.com//education/best-high-schools/missouri/districts/seneca-r-vii/seneca-high-11901
270,Senior High,"Carrollton, MO","300 E Ninth St, Carrollton, Missouri 64633",64633,(660) 542-1276,Carrollton R-Vii,191-291,"12,935-17,245",https://www.usnews.com//education/best-high-schools/missouri/districts/carrollton-r-vii/senior-high-11549
271,Seymour High,"Seymour, MO","625 E Clinton Ave, Seymour, Missouri 65746",65746,(417) 935-4508,Seymour R-II,191-291,"12,935-17,245",https://www.usnews.com//education/best-high-schools/missouri/districts/seymour-r-ii/seymour-high-11902
272,Slater High,"Slater, MO","515 N Elm, Slater, Missouri 65349",65349,(660) 529-2278,Slater,191-291,"12,935-17,245",https://www.usnews.com//education/best-high-schools/missouri/districts/slater/slater-high-11908
273,Soldan International Studies,"St Louis, MO","918 N Union Blvd, St Louis, Missouri 63108",63108,(314) 367-9222,St. Louis Public Schools,191-291,"12,935-17,245",https://www.usnews.com//education/best-high-schools/missouri/districts/st-louis-public-schools/soldan-international-studies-11937
274,Sparta High,"Sparta, MO","8520 State Hwy14e, Sparta, Missouri 65753",65753,(417) 634-3224,Sparta R-III,191-291,"12,935-17,245",https://www.usnews.com//education/best-high-schools/missouri/districts/sparta-r-iii/sparta-high-11920
275,St. James High,"St James, MO","101 E Scioto, St James, Missouri 65559",65559,(573) 265-2300,St. James R-I,191-291,"12,935-17,245",https://www.usnews.com//education/best-high-schools/missouri/districts/st-james-r-i/st-james-high-11935
276,Steelville High,"Steelville, MO","17154 Highway 19, Steelville, Missouri 65565",65565,(573) 775-2144,Steelville R-III,191-291,"12,935-17,245",https://www.usnews.com//education/best-high-schools/missouri/districts/steelville-r-iii/steelville-high-11954
277,Stewartsville High,"Stewartsville, MO","902 Buchanan St, Stewartsville, Missouri 64490",64490,(816) 669-3258,Stewartsville C-2,191-291,"12,935-17,245",https://www.usnews.com//education/best-high-schools/missouri/districts/stewartsville-c-2/stewartsville-high-11956
278,Sturgeon High,"Sturgeon, MO","210 W Patton St, Sturgeon, Missouri 65284",65284,(573) 687-3512,Sturgeon R-V,191-291,"12,935-17,245",https://www.usnews.com//education/best-high-schools/missouri/districts/sturgeon-r-v/sturgeon-high-11961
279,Sweet Springs High,"Sweet Springs, MO","600 E. Marshall St., Sweet Springs, Missouri 65351",65351,(660) 335-6341,Sweet Springs R-Vii,191-291,"12,935-17,245",https://www.usnews.com//education/best-high-schools/missouri/districts/sweet-springs-r-vii/sweet-springs-high-11964
280,Thomas W. Kelly High,"Benton, MO","4035 State Hwy 77, Benton, Missouri 63736",63736,(573) 545-3541,Scott Co. R-Iv,191-291,"12,935-17,245",https://www.usnews.com//education/best-high-schools/missouri/districts/scott-co-r-iv/thomas-w-kelly-high-11507
281,Troy Buchanan High,"Troy, MO","1190 Old Cap-au-gris, Troy, Missouri 63379",63379,(636) 462-5148,Troy R-III,191-291,"12,935-17,245",https://www.usnews.com//education/best-high-schools/missouri/districts/troy-r-iii/troy-buchanan-high-11972
282,University City Sr. High,"University City, MO","7401 Balson Ave, University City, Missouri 63130",63130,(314) 290-4100,University City,191-291,"12,935-17,245",https://www.usnews.com//education/best-high-schools/missouri/districts/university-city/university-city-sr-high-11978
283,Valley High,"Caledonia, MO","1 Viking Dr, Caledonia, Missouri 63631",63631,(573) 779-3515,Valley R-Vi,191-291,"12,935-17,245",https://www.usnews.com//education/best-high-schools/missouri/districts/valley-r-vi/valley-high-11980
284,Wellsville High,"Wellsville, MO","900 Burlington Rd, Wellsville, Missouri 63384",63384,(573) 684-2017,Wellsville Middletown R-I,191-291,"12,935-17,245",https://www.usnews.com//education/best-high-schools/missouri/districts/wellsville-middletown-r-i/wellsville-high-11999
285,Willard High,"Willard, MO","515 E Jackson St, Willard, Missouri 65781",65781,(417) 742-3524,Willard R-II,191-291,"12,935-17,245",https://www.usnews.com//education/best-high-schools/missouri/districts/willard-r-ii/willard-high-12009
286,Willow Springs High,"Willow Springs, MO","215 W Fourth St, Willow Springs, Missouri 65793",65793,(417) 469-2114,Willow Springs R-Iv,191-291,"12,935-17,245",https://www.usnews.com//education/best-high-schools/missouri/districts/willow-springs-r-iv/willow-springs-high-12010
287,Winfield High,"Winfield, MO","701 Elm St, Winfield, Missouri 63389",63389,(636) 668-8130,Winfield R-Iv,191-291,"12,935-17,245",https://www.usnews.com//education/best-high-schools/missouri/districts/winfield-r-iv/winfield-high-12013
288,Winston High,"Winston, MO","200 W Third, Winston, Missouri 64689",64689,(660) 749-5456,Winston R-Vi,191-291,"12,935-17,245",https://www.usnews.com//education/best-high-schools/missouri/districts/winston-r-vi/winston-high-12015
289,Woodland High,"Marble Hill, MO","Rte 5 Box 3210, Marble Hill, Missouri 63764",63764,(573) 238-2663,Woodland R-Iv,191-291,"12,935-17,245",https://www.usnews.com//education/best-high-schools/missouri/districts/woodland-r-iv/woodland-high-11745
290,Zalma High,"Zalma, MO","Hc 02 Box 184, Zalma, Missouri 63787",63787,(573) 722-3320,Zalma R-V,191-291,"12,935-17,245",https://www.usnews.com//education/best-high-schools/missouri/districts/zalma-r-v/zalma-high-12018
